LEMUR-2-PETERG          
1 42841U 17042S   26068.48235713  .00023240  00000+0  81076-3 0  9993
2 42841  97.3980 253.6596 0003700 341.6938  18.4169 15.29611459473171
STARLINK-31828          
1 59767U 24091Q   26068.29930572 -.00000562  00000+0 -68457-5 0  9998
2 59767  53.1616  28.7656 0001132  92.1509 267.9622 15.30193858102948
