[{"OBJECT_NAME":"LEMUR-2-PETERG","OBJECT_ID":"2017-042S","EPOCH":"2026-03-09T11:34:35.656032","MEAN_MOTION":15.29611459,"ECCENTRICITY":0.00037,"INCLINATION":97.398,"RA_OF_ASC_NODE":253.6596,"ARG_OF_PERICENTER":341.6938,"MEAN_ANOMALY":18.4169,"EPHEMERIS_TYPE":0,"CLASSIFICATION_TYPE":"U","NORAD_CAT_ID":42841,"ELEMENT_SET_NO":999,"REV_AT_EPOCH":47317,"BSTAR":0.00081076471,"MEAN_MOTION_DOT":0.0002324,"MEAN_MOTION_DDOT":0},{"OBJECT_NAME":"STARLINK-31828","OBJECT_ID":"2024-091Q","EPOCH":"2026-03-09T07:11:00.014208","MEAN_MOTION":15.30193858,"ECCENTRICITY":0.00011321,"INCLINATION":53.1616,"RA_OF_ASC_NODE":28.7656,"ARG_OF_PERICENTER":92.1509,"MEAN_ANOMALY":267.9622,"EPHEMERIS_TYPE":0,"CLASSIFICATION_TYPE":"U","NORAD_CAT_ID":59767,"ELEMENT_SET_NO":999,"REV_AT_EPOCH":10294,"BSTAR":-6.845739e-6,"MEAN_MOTION_DOT":-5.62e-6,"MEAN_MOTION_DDOT":0}]
